start=new Date('2023-01-29T00:00:00.000Z').valueOf();
sats=[{"SEMIMAJOR_AXIS":"6925.315","TIME_SYSTEM":"UTC","RCS_SIZE":"LARGE","PERIOD":"95.591","MEAN_MOTION_DDOT":"0.0000000000000","TLE_LINE1":"1 48658U 21044W   23028.80212708 -.00000506  00000-0 -15056-4 0  9999","APOAPSIS":"547.975","OBJECT_ID":"2021-044W","CLASSIFICATION_TYPE":"U","INCLINATION":"53.0542","LAUNCH_DATE":"2021-05-26","RA_OF_ASC_NODE":"180.8133","GP_ID":"223911840","MEAN_ANOMALY":"270.7999","ARG_OF_PERICENTER":"89.3122","REF_FRAME":"TEME","PERIAPSIS":"546.384","NORAD_CAT_ID":"48658","MEAN_ELEMENT_THEORY":"SGP4","MEAN_MOTION":"15.06411092","DECAY_DATE":null,"BSTAR":"-0.00001505600000","COUNTRY_CODE":"US","ELEMENT_SET_NO":"999","MEAN_MOTION_DOT":"-0.00000506","SITE":"AFETR","FILE":"3764201","EPHEMERIS_TYPE":"0","ECCENTRICITY":"0.00011490","TLE_LINE2":"2 48658  53.0542 180.8133 0001149  89.3122 270.7999 15.06411092 92504","CENTER_NAME":"EARTH","OBJECT_NAME":"STARLINK-2647","EPOCH":"2023-01-28T19:15:03.779712","OBJECT_TYPE":"PAYLOAD","REV_AT_EPOCH":"9250"},{"DECAY_DATE":null,"MEAN_MOTION":"15.06400418","BSTAR":"-0.00001212200000","COUNTRY_CODE":"US","ELEMENT_SET_NO":"999","CENTER_NAME":"EARTH","TLE_LINE2":"2 48659  53.0525 181.1321 0000913  91.8036 268.3057 15.06400418 92495","OBJECT_NAME":"STARLINK-2717","EPOCH":"2023-01-28T17:34:13.308672","REV_AT_EPOCH":"9249","OBJECT_TYPE":"PAYLOAD","SITE":"AFETR","MEAN_MOTION_DOT":"-0.00000462","EPHEMERIS_TYPE":"0","FILE":"3764201","ECCENTRICITY":"0.00009130","MEAN_MOTION_DDOT":"0.0000000000000","APOAPSIS":"547.845","TLE_LINE1":"1 48659U 21044X   23028.73209848 -.00000462  00000-0 -12122-4 0  9995","OBJECT_ID":"2021-044X","CLASSIFICATION_TYPE":"U","INCLINATION":"53.0525","TIME_SYSTEM":"UTC","SEMIMAJOR_AXIS":"6925.347","PERIOD":"95.592","RCS_SIZE":"LARGE","ARG_OF_PERICENTER":"91.8036","MEAN_ANOMALY":"268.3057","NORAD_CAT_ID":"48659","PERIAPSIS":"546.580","REF_FRAME":"TEME","MEAN_ELEMENT_THEORY":"SGP4","LAUNCH_DATE":"2021-05-26","GP_ID":"223910604","RA_OF_ASC_NODE":"181.1321"},{"LAUNCH_DATE":"2021-05-26","GP_ID":"223910854","RA_OF_ASC_NODE":"181.1463","ARG_OF_PERICENTER":"102.6266","MEAN_ANOMALY":"257.4811","NORAD_CAT_ID":"48660","REF_FRAME":"TEME","PERIAPSIS":"546.641","MEAN_ELEMENT_THEORY":"SGP4","TIME_SYSTEM":"UTC","SEMIMAJOR_AXIS":"6925.319","PERIOD":"95.592","RCS_SIZE":"LARGE","MEAN_MOTION_DDOT":"0.0000000000000","APOAPSIS":"547.728","TLE_LINE1":"1 48660U 21044Y   23028.72840848 -.00001377  00000-0 -73589-4 0  9997","CLASSIFICATION_TYPE":"U","OBJECT_ID":"2021-044Y","INCLINATION":"53.0534","SITE":"AFETR","MEAN_MOTION_DOT":"-0.00001377","FILE":"3764201","EPHEMERIS_TYPE":"0","ECCENTRICITY":"0.00007850","CENTER_NAME":"EARTH","TLE_LINE2":"2 48660  53.0534 181.1463 0000785 102.6266 257.4811 15.06409484 92496","OBJECT_NAME":"STARLINK-2688","EPOCH":"2023-01-28T17:28:54.492672","REV_AT_EPOCH":"9249","OBJECT_TYPE":"PAYLOAD","DECAY_DATE":null,"MEAN_MOTION":"15.06409484","BSTAR":"-0.00007358900000","ELEMENT_SET_NO":"999","COUNTRY_CODE":"US"},{"MEAN_MOTION":"15.06402338","DECAY_DATE":null,"ELEMENT_SET_NO":"999","COUNTRY_CODE":"US","BSTAR":"0.00003772900000","MEAN_MOTION_DOT":"0.00000281","SITE":"AFETR","ECCENTRICITY":"0.00010010","EPHEMERIS_TYPE":"0","FILE":"3764201","OBJECT_NAME":"STARLINK-2708","CENTER_NAME":"EARTH","TLE_LINE2":"2 48661  53.0556 170.8408 0001001  95.3466 264.7637 15.06402338 92642","OBJECT_TYPE":"PAYLOAD","REV_AT_EPOCH":"9264","EPOCH":"2023-01-28T19:05:46.514400","RCS_SIZE":"LARGE","PERIOD":"95.592","SEMIMAJOR_AXIS":"6925.341","TIME_SYSTEM":"UTC","APOAPSIS":"547.900","TLE_LINE1":"1 48661U 21044Z   23028.79567725  .00000281  00000-0  37729-4 0  9992","MEAN_MOTION_DDOT":"0.0000000000000","INCLINATION":"53.0556","CLASSIFICATION_TYPE":"U","OBJECT_ID":"2021-044Z","LAUNCH_DATE":"2021-05-26","RA_OF_ASC_NODE":"170.8408","GP_ID":"223911602","ARG_OF_PERICENTER":"95.3466","MEAN_ANOMALY":"264.7637","MEAN_ELEMENT_THEORY":"SGP4","REF_FRAME":"TEME","PERIAPSIS":"546.513","NORAD_CAT_ID":"48661"},{"BSTAR":"0.00041982000000","ELEMENT_SET_NO":"999","COUNTRY_CODE":"US","DECAY_DATE":null,"MEAN_MOTION":"15.06379811","EPOCH":"2023-01-28T19:00:28.692000","REV_AT_EPOCH":"9264","OBJECT_TYPE":"PAYLOAD","CENTER_NAME":"EARTH","TLE_LINE2":"2 48662  53.0535 170.8695 0001409  85.3406 274.7744 15.06379811 92642","OBJECT_NAME":"STARLINK-2726","FILE":"3764201","EPHEMERIS_TYPE":"0","ECCENTRICITY":"0.00014090","SITE":"AFETR","MEAN_MOTION_DOT":"0.00005974","CLASSIFICATION_TYPE":"U","OBJECT_ID":"2021-044AA","INCLINATION":"53.0535","MEAN_MOTION_DDOT":"0.0000000000000","APOAPSIS":"548.251","TLE_LINE1":"1 48662U 21044AA  23028.79199875  .00005974  00000-0  41982-3 0  9999","TIME_SYSTEM":"UTC","SEMIMAJOR_AXIS":"6925.410","PERIOD":"95.593","RCS_SIZE":"LARGE","NORAD_CAT_ID":"48662","REF_FRAME":"TEME","PERIAPSIS":"546.300","MEAN_ELEMENT_THEORY":"SGP4","ARG_OF_PERICENTER":"85.3406","MEAN_ANOMALY":"274.7744","GP_ID":"223911341","RA_OF_ASC_NODE":"170.8695","LAUNCH_DATE":"2021-05-26"},{"OBJECT_NAME":"STARLINK-2667","TLE_LINE2":"2 48663  53.0539 170.8870 0001418  56.9587 303.1538 15.06386247 92645","CENTER_NAME":"EARTH","REV_AT_EPOCH":"9264","OBJECT_TYPE":"PAYLOAD","EPOCH":"2023-01-28T18:55:10.229376","SITE":"AFETR","MEAN_MOTION_DOT":"-0.00000015","ECCENTRICITY":"0.00014180","EPHEMERIS_TYPE":"0","FILE":"3764201","DECAY_DATE":null,"MEAN_MOTION":"15.06386247","COUNTRY_CODE":"US","ELEMENT_SET_NO":"999","BSTAR":"0.00001786600000","ARG_OF_PERICENTER":"56.9587","MEAN_ANOMALY":"303.1538","MEAN_ELEMENT_THEORY":"SGP4","NORAD_CAT_ID":"48663","PERIAPSIS":"546.274","REF_FRAME":"TEME","LAUNCH_DATE":"2021-05-26","GP_ID":"223910105","RA_OF_ASC_NODE":"170.8870","TLE_LINE1":"1 48663U 21044AB  23028.78831284 -.00000015  00000-0  17866-4 0  9993","APOAPSIS":"548.238","MEAN_MOTION_DDOT":"0.0000000000000","INCLINATION":"53.0539","OBJECT_ID":"2021-044AB","CLASSIFICATION_TYPE":"U","PERIOD":"95.593","RCS_SIZE":"LARGE","TIME_SYSTEM":"UTC","SEMIMAJOR_AXIS":"6925.391"},{"DECAY_DATE":null,"MEAN_MOTION":"15.06401599","BSTAR":"0.00006367600000","ELEMENT_SET_NO":"999","COUNTRY_CODE":"US","CENTER_NAME":"EARTH","TLE_LINE2":"2 48664  53.0535 171.2021 0001304  86.9124 273.2014 15.06401599 92632","OBJECT_NAME":"STARLINK-2709","EPOCH":"2023-01-28T17:14:19.089600","REV_AT_EPOCH":"9263","OBJECT_TYPE":"PAYLOAD","SITE":"AFETR","MEAN_MOTION_DOT":"0.00000667","EPHEMERIS_TYPE":"0","FILE":"3764201","ECCENTRICITY":"0.00013040","MEAN_MOTION_DDOT":"0.0000000000000","APOAPSIS":"548.112","TLE_LINE1":"1 48664U 21044AC  23028.71827650  .00000667  00000-0  63676-4 0  9991","CLASSIFICATION_TYPE":"U","OBJECT_ID":"2021-044AC","INCLINATION":"53.0535","TIME_SYSTEM":"UTC","SEMIMAJOR_AXIS":"6925.344","PERIOD":"95.592","RCS_SIZE":"LARGE","ARG_OF_PERICENTER":"86.9124","MEAN_ANOMALY":"273.2014","NORAD_CAT_ID":"48664","REF_FRAME":"TEME","PERIAPSIS":"546.306","MEAN_ELEMENT_THEORY":"SGP4","LAUNCH_DATE":"2021-05-26","GP_ID":"223910355","RA_OF_ASC_NODE":"171.2021"},{"OBJECT_NAME":"STARLINK-2653","TLE_LINE2":"2 48665  53.0553 170.8309 0001242  91.0213 269.0918 15.06400084 92649","CENTER_NAME":"EARTH","OBJECT_TYPE":"PAYLOAD","REV_AT_EPOCH":"9264","EPOCH":"2023-01-28T19:09:43.386912","MEAN_MOTION_DOT":"-0.00000189","SITE":"AFETR","ECCENTRICITY":"0.00012420","FILE":"3764201","EPHEMERIS_TYPE":"0","MEAN_MOTION":"15.06400084","DECAY_DATE":null,"ELEMENT_SET_NO":"999","COUNTRY_CODE":"US","BSTAR":"0.00000619480000","ARG_OF_PERICENTER":"91.0213","MEAN_ANOMALY":"269.0918","MEAN_ELEMENT_THEORY":"SGP4","REF_FRAME":"TEME","PERIAPSIS":"546.353","NORAD_CAT_ID":"48665","LAUNCH_DATE":"2021-05-26","RA_OF_ASC_NODE":"170.8309","GP_ID":"223911103","TLE_LINE1":"1 48665U 21044AD  23028.79841883 -.00000189  00000-0  61948-5 0  9995","APOAPSIS":"548.073","MEAN_MOTION_DDOT":"0.0000000000000","INCLINATION":"53.0553","CLASSIFICATION_TYPE":"U","OBJECT_ID":"2021-044AD","RCS_SIZE":"LARGE","PERIOD":"95.592","SEMIMAJOR_AXIS":"6925.348","TIME_SYSTEM":"UTC"},{"EPOCH":"2023-01-28T19:27:05.303520","OBJECT_TYPE":"PAYLOAD","REV_AT_EPOCH":"9263","TLE_LINE2":"2 48666  53.0533 171.2631 0001055  79.8054 280.3054 15.06398403 92637","CENTER_NAME":"EARTH","OBJECT_NAME":"STARLINK-2666","EPHEMERIS_TYPE":"0","FILE":"3764201","ECCENTRICITY":"0.00010550","MEAN_MOTION_DOT":"0.00000955","SITE":"AFETR","BSTAR":"0.00008299500000","ELEMENT_SET_NO":"999","COUNTRY_CODE":"US","MEAN_MOTION":"15.06398403","DECAY_DATE":null,"PERIAPSIS":"546.488","REF_FRAME":"TEME","NORAD_CAT_ID":"48666","MEAN_ELEMENT_THEORY":"SGP4","ARG_OF_PERICENTER":"79.8054","MEAN_ANOMALY":"280.3054","RA_OF_ASC_NODE":"171.2631","GP_ID":"223911841","LAUNCH_DATE":"2021-05-26","CLASSIFICATION_TYPE":"U","OBJECT_ID":"2021-044AE","INCLINATION":"53.0533","MEAN_MOTION_DDOT":"0.0000000000000","TLE_LINE1":"1 48666U 21044AE  23028.81047805  .00000955  00000-0  82995-4 0  9995","APOAPSIS":"547.949","SEMIMAJOR_AXIS":"6925.353","TIME_SYSTEM":"UTC","RCS_SIZE":"LARGE","PERIOD":"95.592"},{"SEMIMAJOR_AXIS":"6925.340","TIME_SYSTEM":"UTC","RCS_SIZE":"LARGE","PERIOD":"95.592","OBJECT_ID":"2021-044AF","CLASSIFICATION_TYPE":"U","INCLINATION":"53.0535","MEAN_MOTION_DDOT":"0.0000000000000","TLE_LINE1":"1 48667U 21044AF  23028.78093457  .00001741  00000-0  13572-3 0  9994","APOAPSIS":"548.043","RA_OF_ASC_NODE":"170.9200","GP_ID":"223910605","LAUNCH_DATE":"2021-05-26","PERIAPSIS":"546.366","REF_FRAME":"TEME","NORAD_CAT_ID":"48667","MEAN_ELEMENT_THEORY":"SGP4","MEAN_ANOMALY":"269.4391","ARG_OF_PERICENTER":"90.6737","BSTAR":"0.00013572000000","ELEMENT_SET_NO":"999","COUNTRY_CODE":"US","MEAN_MOTION":"15.06402875","DECAY_DATE":null,"EPHEMERIS_TYPE":"0","FILE":"3764201","ECCENTRICITY":"0.00012110","MEAN_MOTION_DOT":"0.00001741","SITE":"AFETR","EPOCH":"2023-01-28T18:44:32.746848","OBJECT_TYPE":"PAYLOAD","REV_AT_EPOCH":"9264","CENTER_NAME":"EARTH","TLE_LINE2":"2 48667  53.0535 170.9200 0001211  90.6737 269.4391 15.06402875 92643","OBJECT_NAME":"STARLINK-2735"}];
